NORAD_CAT_ID,OBJECT_NAME,OBJECT_TYPE,EPOCH,MEAN_MOTION,ECCENTRICITY,INCLINATION,RA_OF_ASC_NODE,ARG_OF_PERICENTER,MEAN_ANOMALY,BSTAR,MEAN_MOTION_DOT,MEAN_MOTION_DDOT,TLE_LINE0,TLE_LINE1,TLE_LINE2,SEMIMAJOR_AXIS,PERIOD,APOGEE,PERIGEE,DECAYED
52332.0,STARLINK-3831,PAYLOAD,2022-05-29 06:00:02,15.52994059,0.000124,53.2173,291.838,70.4279,192.9693,-0.012223,-0.00709645,0.0,0 STARLINK-3831,1 52332U 22045B   22149.25002315 -.00709645  00000-0 -12223-1 0  9998,2 52332  53.2173 291.8380 0001240  70.4279 192.9693 15.52994059  7156,6786.127,92.724,408.833,407.15,0.0
52332.0,STARLINK-3831,PAYLOAD,2022-05-29 14:08:59,15.53824961,0.0002792,53.213,290.2369,11.0574,349.0499,-0.0032174,-0.00205488,0.0,0 STARLINK-3831,1 52332U 22045B   22149.58957692 -.00205488  00000-0 -32174-2 0  9995,2 52332  53.2130 290.2369 0002792  11.0574 349.0499 15.53824961  7212,6783.706999999999,92.675,407.466,403.67800000000005,0.0
52332.0,STARLINK-3831,PAYLOAD,2022-05-29 21:52:36,15.53321707,0.0001416999999999,53.2116,288.6858,125.183,234.9314,-0.0034253,-0.00214482,0.0,0 STARLINK-3831,1 52332U 22045B   22149.91153108 -.00214482  00000-0 -34253-2 0  9996,2 52332  53.2116 288.6858 0001417 125.1830 234.9314 15.53321707  7268,6785.1730000000025,92.705,407.999,406.076,0.0
52332.0,STARLINK-3831,PAYLOAD,2022-05-30 06:00:00,15.514653,0.0001365,53.2173,287.0344,48.1185,46.4,-0.012965,-0.00721072,0.0,0 STARLINK-3831,1 52332U 22045B   22150.25001157 -.00721072  00000-0 -12965-1 0  9994,2 52332  53.2173 287.0344 0001365  48.1185  46.4000 15.51465300  7313,6790.584,92.815,413.376,411.522,0.0
52332.0,STARLINK-3831,PAYLOAD,2022-05-30 13:20:13,15.52327138,0.0002239,53.212,285.5953,47.7582,312.3619,-0.0033688,-0.00203797,0.0,0 STARLINK-3831,1 52332U 22045B   22150.55570688 -.00203797  00000-0 -33688-2 0  9992,2 52332  53.2120 285.5953 0002239  47.7582 312.3619 15.52327138  7364,6788.07,92.764,411.455,408.416,0.0
52332.0,STARLINK-3831,PAYLOAD,2022-05-30 21:04:15,15.51855131,4.96e-05,53.2108,284.0558,73.2681,286.8385,-0.0037102,-0.00220127,0.0,0 STARLINK-3831,1 52332U 22045B   22150.87796007 -.00220127  00000-0 -37102-2 0  9993,2 52332  53.2108 284.0558 0000496  73.2681 286.8385 15.51855131  7411,6789.446999999999,92.792,411.649,410.975,0.0
52332.0,STARLINK-3831,PAYLOAD,2022-05-31 04:00:00,15.49929073,0.0001374,53.2173,282.6429,51.841,123.1014,-0.0012196,-0.0006917,0.0,0 STARLINK-3831,1 52332U 22045B   22151.16667824 -.00069170  00000-0 -12196-2 0  9995,2 52332  53.2173 282.6429 0001374  51.8410 123.1014 15.49929073  7452,6795.07,92.907,417.869,416.002,0.0
52332.0,STARLINK-3831,PAYLOAD,2022-05-31 06:00:02,15.49887329,0.0001395999999999,53.2173,282.2442,58.3155,221.941,-5.8724e-05,-3.783e-05,0.0,0 STARLINK-3831,1 52332U 22045B   22151.25002315 -.00003783  00000-0 -58724-4 0  9990,2 52332  53.2173 282.2442 0001396  58.3155 221.9410 15.49887329  1307,6795.191999999999,92.91,418.006,416.109,0.0
52332.0,STARLINK-3831,PAYLOAD,2022-05-31 12:32:32,15.50941478,0.0002227,53.212,280.9631,47.1237,312.996,-0.0028561,-0.00165278,0.0,0 STARLINK-3831,1 52332U 22045B   22151.52259281 -.00165278  00000-0 -28561-2 0  9998,2 52332  53.2120 280.9631 0002227  47.1237 312.9960 15.50941478  7513,6792.113,92.847,415.491,412.465,0.0
52332.0,STARLINK-3831,PAYLOAD,2022-05-31 22:00:00,15.49944817,0.0001443,53.212,279.0687,50.2075,351.9966,-0.0010757,-0.00061158,0.0,0 STARLINK-3831,1 52332U 22045B   22151.91667824 -.00061158  00000-0 -10757-2 0  9997,2 52332  53.2120 279.0687 0001443  50.2075 351.9966 15.49944817  7570,6795.024,92.907,417.87,415.909,0.0
52332.0,STARLINK-3831,PAYLOAD,2022-06-01 20:00:01,15.49860661,0.0001383,53.2125,274.688,44.4827,75.2471,0.00077588,0.00043793,0.0,0 STARLINK-3831,1 52332U 22045B   22152.83334491  .00043793  00000-0  77588-3 0  9999,2 52332  53.2125 274.6880 0001383  44.4827  75.2471 15.49860661  7711,6795.27,92.912,418.075,416.196,0.0
52332.0,STARLINK-3831,PAYLOAD,2022-06-03 00:53:24,15.49996393,0.0001286999999999,53.2138,268.9327,78.956,281.1594,-0.00036237,-0.00021044,0.0,0 STARLINK-3831,1 52332U 22045B   22154.03709286 -.00021044  00000-0 -36237-3 0  9994,2 52332  53.2138 268.9327 0001287  78.9560 281.1594 15.49996393  7903,6794.874,92.903,417.61300000000006,415.864,0.0
52332.0,STARLINK-3831,PAYLOAD,2022-06-03 11:43:26,15.49891957,0.0001395,53.2138,266.7754,49.1947,310.9184,5.0249e-05,2.402e-05,0.0,0 STARLINK-3831,1 52332U 22045B   22154.48850039  .00002402  00000-0  50249-4 0  9991,2 52332  53.2138 266.7754 0001395  49.1947 310.9184 15.49891957  7975,6795.179,92.91,417.992,416.096,0.0
52332.0,STARLINK-3831,PAYLOAD,2022-06-03 16:22:00,15.498955800000005,0.0001416999999999,53.2138,265.8507,49.527,310.5863,5.563800000000001e-05,2.708e-05,0.0,0 STARLINK-3831,1 52332U 22045B   22154.68194999  .00002708  00000-0  55638-4 0  9995,2 52332  53.2138 265.8507 0001417  49.5270 310.5863 15.49895580  8000,6795.168000000002,92.909,417.996,416.07,0.0
52332.0,STARLINK-3831,PAYLOAD,2022-06-04 00:06:44,15.49560359,0.0001429,53.2139,264.3118,53.3875,306.7266,-0.00072485,-0.00040908,0.0,0 STARLINK-3831,1 52332U 22045B   22155.00468192 -.00040908  00000-0 -72485-3 0  9995,2 52332  53.2139 264.3118 0001429  53.3875 306.7266 15.49560359  8052,6796.148,92.93,418.984,417.042,0.0
52332.0,STARLINK-3831,PAYLOAD,2022-06-04 10:57:07,15.493641,0.0002733,53.2139,262.1556,356.8087,3.2905,-0.0011199,-0.00062366,0.0,0 STARLINK-3831,1 52332U 22045B   22155.45633777 -.00062366  00000-0 -11199-2 0  9993,2 52332  53.2139 262.1556 0002733 356.8087   3.2905 15.49364100  8122,6796.722,92.941,420.445,416.73,0.0
52332.0,STARLINK-3831,PAYLOAD,2022-06-04 14:03:09,15.49148832,0.0001443,53.2138,261.5406,67.0617,293.0545,-0.0015986,-0.00087866,0.0,0 STARLINK-3831,1 52332U 22045B   22155.58553001 -.00087866  00000-0 -15986-2 0  9998,2 52332  53.2138 261.5406 0001443  67.0617 293.0545 15.49148832  8148,6797.352,92.954,420.198,418.236,0.0
52332.0,STARLINK-3831,PAYLOAD,2022-06-05 22:00:00,15.46515783,0.0001474,53.2173,255.1699,55.1905,167.1363,-0.015482,-0.00722746,0.0,0 STARLINK-3831,1 52332U 22045B   22156.91667824 -.00722746  00000-0 -15482-1 0  9998,2 52332  53.2173 255.1699 0001474  55.1905 167.1363 15.46515783  8343,6805.065,93.113,427.9330000000001,425.927,0.0
52332.0,STARLINK-3831,PAYLOAD,2022-06-06 14:00:01,15.45496034,0.0001648,53.2175,251.9982,39.7507,295.0705,-0.016043,-0.00722987,0.0,0 STARLINK-3831,1 52332U 22045B   22157.58334491 -.00722987  00000-0 -16043-1 0  9994,2 52332  53.2175 251.9982 0001648  39.7507 295.0705 15.45496034  1309,6808.058000000001,93.174,431.045,428.801,0.0
52332.0,STARLINK-3831,PAYLOAD,2022-06-06 22:00:00,15.44985164,0.000143,53.2174,250.4128,42.5048,347.6459,-0.016283,-0.00721129,0.0,0 STARLINK-3831,1 52332U 22045B   22157.91667824 -.00721129  00000-0 -16283-1 0  9993,2 52332  53.2174 250.4128 0001430  42.5048 347.6459 15.44985164  1301,6809.559,93.205,432.397,430.45,0.0
52332.0,STARLINK-3831,PAYLOAD,2022-06-07 06:00:00,15.44473856,0.0001735,53.2176,248.8285,35.408,49.4591,-0.016498,-0.00718235,0.0,0 STARLINK-3831,1 52332U 22045B   22158.25001157 -.00718235  00000-0 -16498-1 0  9994,2 52332  53.2176 248.8285 0001735  35.4080  49.4591 15.44473856  8551,6811.061,93.236,434.108,431.745,0.0
52332.0,STARLINK-3831,PAYLOAD,2022-06-07 14:00:01,15.43965157,0.0002015,53.2174,247.2486,32.5238,106.4447,-0.01685,-0.00720769,0.0,0 STARLINK-3831,1 52332U 22045B   22158.58334491 -.00720769  00000-0 -16850-1 0  9997,2 52332  53.2174 247.2486 0002015  32.5238 106.4447 15.43965157  1309,6812.557,93.266,435.795,433.05,0.0
52332.0,STARLINK-3831,PAYLOAD,2022-06-07 22:00:00,15.43455836,0.0001725,53.2173,245.6664,42.7369,149.7223,-0.017175,-0.00721903,0.0,0 STARLINK-3831,1 52332U 22045B   22158.91667824 -.00721903  00000-0 -17175-1 0  9995,2 52332  53.2173 245.6664 0001725  42.7369 149.7223 15.43455836  1303,6814.056,93.297,437.096,434.746,0.0
52332.0,STARLINK-3831,PAYLOAD,2022-06-08 06:00:02,15.42944648,0.0001587,53.2175,244.086,49.9732,195.428,-0.017386,-0.00718462,0.0,0 STARLINK-3831,1 52332U 22045B   22159.25002315 -.00718462  00000-0 -17386-1 0  9991,2 52332  53.2175 244.0860 0001587  49.9732 195.4280 15.42944648  8700,6815.561,93.328,438.508,436.344,0.0
52332.0,STARLINK-3831,PAYLOAD,2022-06-08 14:00:01,15.42435357,0.0001809,53.2175,242.5098,36.9172,260.6831,-0.017751,-0.00720871,0.0,0 STARLINK-3831,1 52332U 22045B   22159.58334491 -.00720871  00000-0 -17751-1 0  9993,2 52332  53.2175 242.5098 0001809  36.9172 260.6831 15.42435357  1305,6817.061,93.359,440.159,437.693,0.0
52332.0,STARLINK-3831,PAYLOAD,2022-06-08 22:00:01,15.41925982,0.000148,53.2173,240.9312,42.5916,306.7254,-0.018095,-0.00722182,0.0,0 STARLINK-3831,1 52332U 22045B   22159.91668981 -.00722182  00000-0 -18095-1 0  9993,2 52332  53.2173 240.9312 0001480  42.5916 306.7254 15.41925982  1306,6818.562,93.39,441.437,439.418,0.0
52332.0,STARLINK-3831,PAYLOAD,2022-06-09 06:00:00,15.41413964,0.0001644,53.2174,239.3547,36.5811,3.7114,-0.018288,-0.00717823,0.0,0 STARLINK-3831,1 52332U 22045B   22160.25001157 -.00717823  00000-0 -18288-1 0  9998,2 52332  53.2174 239.3547 0001644  36.5811   3.7114 15.41413964  8867,6820.071999999999,93.421,443.059,440.816,0.0
52332.0,STARLINK-3831,PAYLOAD,2022-06-09 14:00:01,15.40905051,0.0001915,53.2174,237.7819,31.9774,58.7398,-0.018668,-0.00720224,0.0,0 STARLINK-3831,1 52332U 22045B   22160.58334491 -.00720224  00000-0 -18668-1 0  9995,2 52332  53.2174 237.7819 0001915  31.9774  58.7398 15.40905051  1307,6821.574000000001,93.452,444.745,442.133,0.0
52332.0,STARLINK-3831,PAYLOAD,2022-06-09 22:00:00,15.40395067,0.0001717,53.2173,236.207,39.9754,100.556,-0.018974,-0.00719701,0.0,0 STARLINK-3831,1 52332U 22045B   22160.91667824 -.00719701  00000-0 -18974-1 0  9999,2 52332  53.2173 236.2070 0001717  39.9754 100.5560 15.40395067  1302,6823.079000000002,93.483,446.116,443.773,0.0
